JY1SAT (JO-97)          
1 43803U 18099AX  26068.68634132  .00017774  00000+0  60804-3 0  9996
2 43803  97.4249 131.3625 0004723 256.6795 103.3919 15.30302628398390
STARLINK-34849          
1 66005U 25232A   26068.81888146  .00022136  00000+0  75785-3 0  9995
2 66005  53.1590 103.4335 0001522  81.5244 278.5930 15.30175686 23444
